[{"OBJECT_NAME":"STARLINK-36726","OBJECT_ID":"2026-036X","EPOCH":"2026-03-17T06:00:02.000160","MEAN_MOTION":15.50524993,"ECCENTRICITY":0.00016432,"INCLINATION":43.0001,"RA_OF_ASC_NODE":204.5683,"ARG_OF_PERICENTER":275.5207,"MEAN_ANOMALY":146.7846,"EPHEMERIS_TYPE":0,"CLASSIFICATION_TYPE":"U","NORAD_CAT_ID":67925,"ELEMENT_SET_NO":999,"REV_AT_EPOCH":486,"BSTAR":0.001274988,"MEAN_MOTION_DOT":0.00075032,"MEAN_MOTION_DDOT":0},{"OBJECT_NAME":"STARLINK-36758","OBJECT_ID":"2026-036Y","EPOCH":"2026-03-17T06:00:02.000160","MEAN_MOTION":15.5359493,"ECCENTRICITY":0.00010705,"INCLINATION":43.0004,"RA_OF_ASC_NODE":204.1025,"ARG_OF_PERICENTER":273.4916,"MEAN_ANOMALY":338.5053,"EPHEMERIS_TYPE":0,"CLASSIFICATION_TYPE":"U","NORAD_CAT_ID":67926,"ELEMENT_SET_NO":999,"REV_AT_EPOCH":486,"BSTAR":-0.030467717,"MEAN_MOTION_DOT":-0.01772551,"MEAN_MOTION_DDOT":0},{"OBJECT_NAME":"STARLINK-36728","OBJECT_ID":"2026-036Z","EPOCH":"2026-03-17T06:00:02.000160","MEAN_MOTION":15.57051244,"ECCENTRICITY":0.00015302,"INCLINATION":42.9999,"RA_OF_ASC_NODE":203.8837,"ARG_OF_PERICENTER":268.654,"MEAN_ANOMALY":70.6317,"EPHEMERIS_TYPE":0,"CLASSIFICATION_TYPE":"U","NORAD_CAT_ID":67927,"ELEMENT_SET_NO":999,"REV_AT_EPOCH":486,"BSTAR":-0.028355871,"MEAN_MOTION_DOT":-0.01864809,"MEAN_MOTION_DDOT":0},{"OBJECT_NAME":"STARLINK-36771","OBJECT_ID":"2026-036AA","EPOCH":"2026-03-17T06:00:02.000160","MEAN_MOTION":15.55288549,"ECCENTRICITY":0.00014456,"INCLINATION":43,"RA_OF_ASC_NODE":203.9912,"ARG_OF_PERICENTER":267.3395,"MEAN_ANOMALY":28.5671,"EPHEMERIS_TYPE":0,"CLASSIFICATION_TYPE":"U","NORAD_CAT_ID":67928,"ELEMENT_SET_NO":999,"REV_AT_EPOCH":486,"BSTAR":-0.030219865,"MEAN_MOTION_DOT":-0.01860632,"MEAN_MOTION_DDOT":0},{"OBJECT_NAME":"STARLINK-36809","OBJECT_ID":"2026-036AB","EPOCH":"2026-03-17T06:00:02.000160","MEAN_MOTION":15.55311364,"ECCENTRICITY":0.00015779,"INCLINATION":43,"RA_OF_ASC_NODE":203.9681,"ARG_OF_PERICENTER":264.944,"MEAN_ANOMALY":40.0633,"EPHEMERIS_TYPE":0,"CLASSIFICATION_TYPE":"U","NORAD_CAT_ID":67929,"ELEMENT_SET_NO":999,"REV_AT_EPOCH":486,"BSTAR":-0.030095456,"MEAN_MOTION_DOT":-0.01855333,"MEAN_MOTION_DDOT":0},{"OBJECT_NAME":"STARLINK-36865","OBJECT_ID":"2026-036AC","EPOCH":"2026-03-17T06:00:02.000160","MEAN_MOTION":15.59927094,"ECCENTRICITY":0.00017033,"INCLINATION":43.0003,"RA_OF_ASC_NODE":203.7071,"ARG_OF_PERICENTER":273.8363,"MEAN_ANOMALY":136.3675,"EPHEMERIS_TYPE":0,"CLASSIFICATION_TYPE":"U","NORAD_CAT_ID":67930,"ELEMENT_SET_NO":999,"REV_AT_EPOCH":486,"BSTAR":-0.025543647,"MEAN_MOTION_DOT":-0.01874036,"MEAN_MOTION_DDOT":0},{"OBJECT_NAME":"STARLINK-36781","OBJECT_ID":"2026-036AD","EPOCH":"2026-03-17T06:00:02.000160","MEAN_MOTION":15.59331927,"ECCENTRICITY":0.000167,"INCLINATION":43,"RA_OF_ASC_NODE":203.7461,"ARG_OF_PERICENTER":273.7407,"MEAN_ANOMALY":120.7394,"EPHEMERIS_TYPE":0,"CLASSIFICATION_TYPE":"U","NORAD_CAT_ID":67931,"ELEMENT_SET_NO":999,"REV_AT_EPOCH":486,"BSTAR":-0.026073983,"MEAN_MOTION_DOT":-0.01870013,"MEAN_MOTION_DDOT":0},{"OBJECT_NAME":"STARLINK-36301","OBJECT_ID":"2026-037A","EPOCH":"2026-03-17T06:44:54.535200","MEAN_MOTION":15.82085225,"ECCENTRICITY":0.00019954,"INCLINATION":42.9978,"RA_OF_ASC_NODE":152.0528,"ARG_OF_PERICENTER":199.5379,"MEAN_ANOMALY":160.5416,"EPHEMERIS_TYPE":0,"CLASSIFICATION_TYPE":"U","NORAD_CAT_ID":67932,"ELEMENT_SET_NO":999,"REV_AT_EPOCH":445,"BSTAR":0.00074838759,"MEAN_MOTION_DOT":0.00160528,"MEAN_MOTION_DDOT":0},{"OBJECT_NAME":"STARLINK-36852","OBJECT_ID":"2026-037B","EPOCH":"2026-03-17T06:00:02.000160","MEAN_MOTION":15.67724958,"ECCENTRICITY":0.00012193,"INCLINATION":42.9994,"RA_OF_ASC_NODE":152.454,"ARG_OF_PERICENTER":278.8342,"MEAN_ANOMALY":179.8232,"EPHEMERIS_TYPE":0,"CLASSIFICATION_TYPE":"U","NORAD_CAT_ID":67933,"ELEMENT_SET_NO":999,"REV_AT_EPOCH":441,"BSTAR":-0.019297818,"MEAN_MOTION_DOT":-0.0192617,"MEAN_MOTION_DDOT":0},{"OBJECT_NAME":"STARLINK-36861","OBJECT_ID":"2026-037C","EPOCH":"2026-03-17T05:11:58.458912","MEAN_MOTION":15.81347431,"ECCENTRICITY":0.00015392,"INCLINATION":42.998,"RA_OF_ASC_NODE":152.4288,"ARG_OF_PERICENTER":274.3291,"MEAN_ANOMALY":85.7405,"EPHEMERIS_TYPE":0,"CLASSIFICATION_TYPE":"U","NORAD_CAT_ID":67934,"ELEMENT_SET_NO":999,"REV_AT_EPOCH":444,"BSTAR":-0.0030934846,"MEAN_MOTION_DOT":-0.00590592,"MEAN_MOTION_DDOT":0},{"OBJECT_NAME":"STARLINK-36860","OBJECT_ID":"2026-037D","EPOCH":"2026-03-17T06:00:02.000160","MEAN_MOTION":15.73295268,"ECCENTRICITY":0.00010005,"INCLINATION":42.9993,"RA_OF_ASC_NODE":152.2964,"ARG_OF_PERICENTER":275.7887,"MEAN_ANOMALY":246.5058,"EPHEMERIS_TYPE":0,"CLASSIFICATION_TYPE":"U","NORAD_CAT_ID":67935,"ELEMENT_SET_NO":999,"REV_AT_EPOCH":441,"BSTAR":-0.015466268,"MEAN_MOTION_DOT":-0.01951038,"MEAN_MOTION_DDOT":0},{"OBJECT_NAME":"STARLINK-36848","OBJECT_ID":"2026-037E","EPOCH":"2026-03-17T06:00:02.000160","MEAN_MOTION":15.70810331,"ECCENTRICITY":0.00011195,"INCLINATION":42.9993,"RA_OF_ASC_NODE":152.3274,"ARG_OF_PERICENTER":276.6364,"MEAN_ANOMALY":232.909,"EPHEMERIS_TYPE":0,"CLASSIFICATION_TYPE":"U","NORAD_CAT_ID":67936,"ELEMENT_SET_NO":999,"REV_AT_EPOCH":441,"BSTAR":-0.017137879,"MEAN_MOTION_DOT":-0.01944085,"MEAN_MOTION_DDOT":0},{"OBJECT_NAME":"STARLINK-36370","OBJECT_ID":"2026-037F","EPOCH":"2026-03-16T14:03:19.749600","MEAN_MOTION":15.77571951,"ECCENTRICITY":0.00067838,"INCLINATION":42.9984,"RA_OF_ASC_NODE":156.302,"ARG_OF_PERICENTER":282.4802,"MEAN_ANOMALY":77.5309,"EPHEMERIS_TYPE":0,"CLASSIFICATION_TYPE":"U","NORAD_CAT_ID":67937,"ELEMENT_SET_NO":999,"REV_AT_EPOCH":434,"BSTAR":-0.0025628608,"MEAN_MOTION_DOT":-0.0042076,"MEAN_MOTION_DDOT":0},{"OBJECT_NAME":"STARLINK-36371","OBJECT_ID":"2026-037G","EPOCH":"2026-03-17T06:00:02.000160","MEAN_MOTION":15.78072883,"ECCENTRICITY":9.691e-5,"INCLINATION":42.9995,"RA_OF_ASC_NODE":152.1977,"ARG_OF_PERICENTER":263.7487,"MEAN_ANOMALY":297.4791,"EPHEMERIS_TYPE":0,"CLASSIFICATION_TYPE":"U","NORAD_CAT_ID":67938,"ELEMENT_SET_NO":999,"REV_AT_EPOCH":441,"BSTAR":-0.012541156,"MEAN_MOTION_DOT":-0.01916781,"MEAN_MOTION_DDOT":0},{"OBJECT_NAME":"STARLINK-36246","OBJECT_ID":"2026-037H","EPOCH":"2026-03-17T06:00:02.000160","MEAN_MOTION":15.71617682,"ECCENTRICITY":0.00011262,"INCLINATION":42.9992,"RA_OF_ASC_NODE":152.2875,"ARG_OF_PERICENTER":272.87,"MEAN_ANOMALY":252.7244,"EPHEMERIS_TYPE":0,"CLASSIFICATION_TYPE":"U","NORAD_CAT_ID":67939,"ELEMENT_SET_NO":999,"REV_AT_EPOCH":432,"BSTAR":-0.016592169,"MEAN_MOTION_DOT":-0.01947612,"MEAN_MOTION_DDOT":0},{"OBJECT_NAME":"STARLINK-36907","OBJECT_ID":"2026-037J","EPOCH":"2026-03-17T06:34:07.482144","MEAN_MOTION":15.82065575,"ECCENTRICITY":0.0001048,"INCLINATION":42.9984,"RA_OF_ASC_NODE":151.9917,"ARG_OF_PERICENTER":228.9867,"MEAN_ANOMALY":131.0915,"EPHEMERIS_TYPE":0,"CLASSIFICATION_TYPE":"U","NORAD_CAT_ID":67940,"ELEMENT_SET_NO":999,"REV_AT_EPOCH":445,"BSTAR":0.0004927317,"MEAN_MOTION_DOT":0.00104722,"MEAN_MOTION_DDOT":0}]
